PROBA-1                 
1 26958U 01049B   26181.54452369  .00002263  00000+0  14809-3 0  9997
2 26958  97.9595 190.5433 0056699  78.2006 282.5573 15.07554824345633
CUTE-1 (CO-55)          
1 27844U 03031E   26180.96278102  .00000311  00000+0  15340-3 0  9994
2 27844  98.6736 189.3610 0010300 142.4898 217.7002 14.24343456193495
CUBESAT XI-IV (CO-57)   
1 27848U 03031J   26180.95765288  .00000265  00000+0  13524-3 0  9993
2 27848  98.6768 189.0585 0009785 160.0224 200.1339 14.23627529193197
APRIZESAT 4             
1 35684U 09041D   26181.20386405  .00000670  00000+0  86595-4 0  9995
2 35684  98.1410 256.7837 0041904 279.6731  79.9750 14.83895696913292
APRIZESAT 3             
1 35686U 09041F   26181.40687672  .00000823  00000+0  75961-4 0  9994
2 35686  98.2077 335.2653 0062166  24.4362 335.9783 14.96276948918352
PROBA-2                 
1 36037U 09059B   26181.51414041  .00000189  00000+0  54441-4 0  9999
2 36037  98.2451   4.6822 0012136 236.5404 123.4633 14.54868053883464
APRIZESAT 5             
1 37792U 11044E   26181.38378553  .00001075  00000+0  14293-3 0  9992
2 37792  98.2451 114.7984 0051301 321.5684  38.1878 14.81103393800749
APRIZESAT 6             
1 37793U 11044F   26181.30157725  .00000823  00000+0  12307-3 0  9995
2 37793  98.2354  92.0685 0044129  45.2799  76.8723 14.76935873799087
PROBA-V                 
1 39159U 13021A   26181.47324500  .00000090  00000+0  57482-4 0  9995
2 39159  98.3593 159.4244 0005435  93.1429 267.0372 14.23600179683007
APRIZESAT 7             
1 39416U 13066A   26181.36967846  .00001114  00000+0  11542-3 0  9998
2 39416  97.7714 134.4004 0036140 165.2377 194.9906 14.91591019683196
APRIZESAT 8             
1 39425U 13066K   26181.39184055  .00000858  00000+0  98854-4 0  9990
2 39425  97.8225 128.6760 0044481 241.6360 118.0367 14.87675304681636
BUGSAT-1 (TITA)         
1 40014U 14033E   26181.57026304  .00004619  00000+0  24375-3 0  9998
2 40014  98.0441 274.9028 0029018 133.4257 226.9396 15.15732328657860
SAUDISAT 4              
1 40016U 14033G   26181.37416302  .00000595  00000+0  84937-4 0  9999
2 40016  97.7598 327.0537 0045480  32.1217 328.2752 14.79560835648029
APRIZESAT 9             
1 40018U 14033J   26181.30728353  .00000803  00000+0  12497-3 0  9999
2 40018  97.9077 314.1862 0066703 157.0375 203.3840 14.74233565645497
APRIZESAT 10            
1 40019U 14033K   26181.32395548  .00000583  00000+0  99304-4 0  9996
2 40019  97.9666 307.9915 0077710 231.1992 128.2258 14.70895441644186
TECHDEMOSAT-1 (TDS-1)   
1 40076U 14037H   26181.44824856  .00007744  00000+0  43680-3 0  9996
2 40076  98.3812 174.9772 0005411 207.9066 152.1873 15.13486685650238
TECHNOSAT               
1 42829U 17042E   26181.41371381  .00002335  00000+0  16796-3 0  9999
2 42829  97.4292 338.5697 0018877  52.5885 307.7057 15.05034668488697
FLYING LAPTOP           
1 42831U 17042G   26181.58335111  .00003365  00000+0  26545-3 0  9998
2 42831  97.4743 336.6049 0019963  78.7182 281.6285 15.01230102488463
HAWK-A                  
1 43765U 18099H   26181.08000475  .00007053  00000+0  28289-3 0  9990
2 43765  97.3907 233.1483 0033378 238.2442 121.5542 15.24791675415068
HAWK-B                  
1 43794U 18099AN  26181.57686838  .00005679  00000+0  24180-3 0  9997
2 43794  97.3953 233.0257 0030319 255.3153 104.4722 15.22965155415075
HAWK-C                  
1 43799U 18099AT  26181.09274803  .00007207  00000+0  25855-3 0  9993
2 43799  97.3883 234.1369 0039001 238.1377 121.6064 15.28279041415889
SALSAT                  
1 46495U 20068K   26181.48833811  .00007517  00000+0  26165-3 0  9990
2 46495  97.8843 185.3641 0007929 251.0233 109.0147 15.29983096317397
HAWK-2C                 
1 47502U 21006CT  26181.12712277  .00006079  00000+0  18226-3 0  9997
2 47502  97.2270 225.1793 0008002 144.1569 216.0213 15.34817008301484
HAWK-2A                 
1 47505U 21006CW  26181.58586328  .00006543  00000+0  19586-3 0  9992
2 47505  97.2310 226.3146 0007485 145.6521 214.5208 15.34837558301552
HAWK-2B                 
1 47508U 21006CZ  26181.58054712  .00007321  00000+0  21808-3 0  9997
2 47508  97.2178 224.6196 0008078 144.3483 215.8302 15.34946908301554
HAWK-3B                 
1 48931U 21059BE  26181.45313296  .00040404  00000+0  32759-3 0  9993
2 48931  97.6640  19.4261 0003270 261.1542  98.9350 15.70661718279931
HAWK-3C                 
1 48948U 21059BX  26181.07054543  .00041719  00000+0  33853-3 0  9992
2 48948  97.6764  24.7146 0003515 264.4956  95.5905 15.70634821279871
HAWK-3A                 
1 48957U 21059CG  26181.51639679  .00042008  00000+0  34048-3 0  9999
2 48957  97.6702  22.3981 0003467 264.4395  95.6471 15.70661079279949
HAWK-5C                 
1 52754U 22057Y   26181.39383176  .00016310  00000+0  27407-3 0  9990
2 52754  97.6608 341.9170 0004086  38.9735 321.1810 15.51846590228393
HAWK-5B                 
1 52756U 22057AA  26181.39365847  .00016573  00000+0  27838-3 0  9996
2 52756  97.6618 340.2672 0004683  30.5249 329.6274 15.51851030228398
